IRIDIUM 7               
1 24793U 97020B   24180.45287564  .00000743  00000+0  25300-3 0  9995
2 24793  86.3966 325.1126 0002005  98.5601 261.5822 14.35268347421142
IRIDIUM 5               
1 24795U 97020D   24180.57974888  .00005522  00000+0  52370-3 0  9999
2 24795  86.3915 245.8547 0119443 322.7418  36.5562 14.88047273432768
IRIDIUM 4               
1 24796U 97020E   24180.45246631  .00000770  00000+0  25731-3 0  9996
2 24796  86.3963 322.2242 0001976  92.1601 267.9822 14.36194970421685
IRIDIUM 914             
1 24836U 97030A   24180.45291634  .00000880  00000+0  27300-3 0  9991
2 24836  86.3944 331.8706 0001269  35.4826 324.6457 14.40058466556200
IRIDIUM 16              
1 24841U 97030F   24180.51489487  .00000909  00000+0  29467-3 0  9997
2 24841  86.4040 353.8491 0003755 118.5625 241.5951 14.37948234416164
IRIDIUM 911             
1 24842U 97030G   24180.51254998  .00001194  00000+0  32538-3 0  9995
2 24842  86.4466 352.9660 0013813 188.2465 171.8513 14.46599163423932
IRIDIUM 17              
1 24870U 97034B   24180.56077856  .00000781  00000+0  25669-3 0  9999
2 24870  86.3959  23.4158 0003766  89.0419 271.1210 14.37041641412786
IRIDIUM 920             
1 24871U 97034C   24180.54013810  .00000869  00000+0  26541-3 0  9995
2 24871  86.3979   3.4803 0012139 158.7865 201.3840 14.40758316415647
